IONOSFERA-M 2           
1 61736U 24199B   26178.28466468  .00000057  00000+0  45236-4 0  9991
2 61736  98.7160  51.2603 0000614  40.2197 319.9026 14.22759329132265
PRSC-EO1                
1 62725U 25012A   26178.27939293  .00007673  00000+0  38332-3 0  9994
2 62725  97.4229 250.5419 0005596 210.2351 149.8561 15.17732091 79727
BIOMASS                 
1 63772U 25090A   26176.41992450  .00000661  00000+0  12495-3 0  9993
2 63772  98.0741   3.6181 0001429  94.8977 265.2391 14.67536962 61896
GOSAT-GW (IBUKI GW)     
1 64694U 25141A   26178.28100412  .00000884  00000+0  16432-3 0  9992
2 64694  98.0568 115.4340 0001441  84.2665 275.8704 14.67554427 53327
IONOSFERA-M 3           
1 64876U 25155A   26178.31140541  .00000035  00000+0  35462-4 0  9993
2 64876  98.6028 139.9617 0001572 139.9316 220.1978 14.21488071 47847
IONOSFERA-M 4           
1 64877U 25155B   26178.27584157  .00000044  00000+0  39930-4 0  9998
2 64877  98.6027 139.8443 0001398 115.7648 244.3674 14.21490450 47833
MICROCARB               
1 64899U 25156A   26178.20729740  .00000500  00000+0  86431-4 0  9990
2 64899  97.9920 255.1721 0015466 234.0869 125.8904 14.72533186 49441
CO3D 3                  
1 64900U 25156B   26178.25851884  .00004617  00000+0  21624-3 0  9998
2 64900  97.4334 256.8065 0001782 118.3125 241.8290 15.20205868 51067
CO3D 4                  
1 64901U 25156C   26178.25867021  .00004617  00000+0  21625-3 0  9990
2 64901  97.4336 256.8066 0000517 185.4707 174.6523 15.20207333 51068
CO3D 2                  
1 64902U 25156D   26178.22532270  .00004916  00000+0  22998-3 0  9999
2 64902  97.4335 256.6725 0001514 100.4372 259.7034 15.20212679 51051
CO3D 1                  
1 64903U 25156E   26178.22547611  .00005000  00000+0  23391-3 0  9998
2 64903  97.4334 256.6729 0001372 107.6840 252.4545 15.20206571 51057
PRSC-S1                 
1 65055U 25164A   26178.27456924  .00003859  00000+0  26815-3 0  9991
2 65055  41.1294 230.9973 0005167  57.6852 302.4462 15.06531674 49955
SENTINEL-6B             
1 66514U 25264A   26178.23570305 -.00000074  00000+0 -56782-4 0  9994
2 66514  66.0409 114.3080 0007940 268.9520  91.0586 12.80929981 28455
CAS500-3                
1 66655U 25274F   26178.29985358  .00001281  00000+0  14416-3 0  9991
2 66655  97.7444 106.1209 0006947  84.5903 275.6106 14.88344136 31653
CSG-3                   
1 67304U 26001A   26178.25809586  .00000321  00000+0  46868-4 0  9997
2 67304  97.8888   1.7140 0001471  96.5234 263.6147 14.82160317 25958
PRSC-E03                
1 68835U 26092A   26177.99686672  .00003047  00000+0  20830-3 0  9994
2 68835  38.0023  31.8333 0002687 104.6762 255.4297 15.06718177  9431
CAS500-2                
1 69013U 26100AK  26178.28595333  .00006483  00000+0  29761-3 0  9998
2 69013  97.3900  75.9585 0009539   2.2283 357.8994 15.20705129  8343
