OBJECT_NAME,OBJECT_ID,EPOCH,MEAN_MOTION,ECCENTRICITY,INCLINATION,RA_OF_ASC_NODE,ARG_OF_PERICENTER,MEAN_ANOMALY,EPHEMERIS_TYPE,CLASSIFICATION_TYPE,NORAD_CAT_ID,ELEMENT_SET_NO,REV_AT_EPOCH,BSTAR,MEAN_MOTION_DOT,MEAN_MOTION_DDOT
IONOSFERA-M 2,2024-199B,2026-06-27T06:49:55.028352,14.22759329,.00006144,98.7160,51.2603,40.2197,319.9026,0,U,61736,999,13226,.4523579E-4,.57E-6,0
PRSC-EO1,2025-012A,2026-06-27T06:42:19.549152,15.17732091,.00055961,97.4229,250.5419,210.2351,149.8561,0,U,62725,999,7972,.38332023E-3,.7673E-4,0
BIOMASS,2025-090A,2026-06-25T10:04:41.476800,14.67536962,.0001429,98.0741,3.6181,94.8977,265.2391,0,U,63772,999,6189,.12495E-3,.661E-5,0
GOSAT-GW (IBUKI GW),2025-141A,2026-06-27T06:44:38.755968,14.67554427,.00014413,98.0568,115.4340,84.2665,275.8704,0,U,64694,999,5332,.16432444E-3,.884E-5,0
IONOSFERA-M 3,2025-155A,2026-06-27T07:28:25.427424,14.21488071,.00015727,98.6028,139.9617,139.9316,220.1978,0,U,64876,999,4784,.354624E-4,.35E-6,0
IONOSFERA-M 4,2025-155B,2026-06-27T06:37:12.711648,14.21490450,.00013985,98.6027,139.8443,115.7648,244.3674,0,U,64877,999,4783,.39930277E-4,.44E-6,0
MICROCARB,2025-156A,2026-06-27T04:58:30.495360,14.72533186,.00154665,97.9920,255.1721,234.0869,125.8904,0,U,64899,999,4944,.86431031E-4,.5E-5,0
CO3D 3,2025-156B,2026-06-27T06:12:16.027776,15.20205868,.00017824,97.4334,256.8065,118.3125,241.8290,0,U,64900,999,5106,.21624432E-3,.4617E-4,0
CO3D 4,2025-156C,2026-06-27T06:12:29.106144,15.20207333,.0000517,97.4336,256.8066,185.4707,174.6523,0,U,64901,999,5106,.21624869E-3,.4617E-4,0
CO3D 2,2025-156D,2026-06-27T05:24:27.881280,15.20212679,.00015143,97.4335,256.6725,100.4372,259.7034,0,U,64902,999,5105,.22997906E-3,.4916E-4,0
CO3D 1,2025-156E,2026-06-27T05:24:41.135904,15.20206571,.00013721,97.4334,256.6729,107.6840,252.4545,0,U,64903,999,5105,.23390893E-3,.5E-4,0
PRSC-S1,2025-164A,2026-06-27T06:35:22.782336,15.06531674,.00051673,41.1294,230.9973,57.6852,302.4462,0,U,65055,999,4995,.26815111E-3,.3859E-4,0
SENTINEL-6B,2025-264A,2026-06-27T05:39:24.743520,12.80929981,.00079401,66.0409,114.3080,268.9520,91.0586,0,U,66514,999,2845,-.56781747E-4,-.74E-6,0
CAS500-3,2025-274F,2026-06-27T07:11:47.349312,14.88344136,.00069479,97.7444,106.1209,84.5903,275.6106,0,U,66655,999,3165,.14416414E-3,.1281E-4,0
CSG-3,2026-001A,2026-06-27T06:11:39.482304,14.82160317,.00014715,97.8888,1.7140,96.5234,263.6147,0,U,67304,999,2595,.46867509E-4,.321E-5,0
PRSC-E03,2026-092A,2026-06-26T23:55:29.284608,15.06718177,.00026875,38.0023,31.8333,104.6762,255.4297,0,U,68835,999,943,.20830436E-3,.3047E-4,0
CAS500-2,2026-100AK,2026-06-27T06:51:46.367712,15.20705129,.00095398,97.3900,75.9585,2.2283,357.8994,0,U,69013,999,834,.29760816E-3,.6483E-4,0
